[{"OBJECT_NAME":"STARLINK-31586","OBJECT_ID":"2024-046E","EPOCH":"2026-03-09T12:27:01.617408","MEAN_MOTION":15.30192497,"ECCENTRICITY":9.933e-5,"INCLINATION":53.16,"RA_OF_ASC_NODE":156.1146,"ARG_OF_PERICENTER":99.6292,"MEAN_ANOMALY":260.4821,"EPHEMERIS_TYPE":0,"CLASSIFICATION_TYPE":"U","NORAD_CAT_ID":59205,"ELEMENT_SET_NO":999,"REV_AT_EPOCH":11302,"BSTAR":3.5674838e-5,"MEAN_MOTION_DOT":6.97e-6,"MEAN_MOTION_DDOT":0},{"OBJECT_NAME":"TRANSPORTER-12 OBJECT AZ","OBJECT_ID":"2025-009AZ","EPOCH":"2026-03-09T17:02:46.667040","MEAN_MOTION":15.30349724,"ECCENTRICITY":9.87e-5,"INCLINATION":97.3981,"RA_OF_ASC_NODE":151.9913,"ARG_OF_PERICENTER":45.3581,"MEAN_ANOMALY":314.774,"EPHEMERIS_TYPE":0,"CLASSIFICATION_TYPE":"U","NORAD_CAT_ID":62656,"ELEMENT_SET_NO":999,"REV_AT_EPOCH":6379,"BSTAR":0.00054902545,"MEAN_MOTION_DOT":0.00016057,"MEAN_MOTION_DDOT":0}]
