STARLINK-31586          
1 59205U 24046E   26068.51876872  .00000697  00000+0  35675-4 0  9994
2 59205  53.1600 156.1146 0000993  99.6292 260.4821 15.30192497113021
TRANSPORTER-12 OBJECT AZ
1 62656U 25009AZ  26068.71026235  .00016057  00000+0  54903-3 0  9991
2 62656  97.3981 151.9913 0000987  45.3581 314.7740 15.30349724 63792
